{"type": "FeatureCollection", "features": [ {"type": "Feature", "properties": {"norad_id": 66609, "name": "STARLINK-36034", "group": "last-30-days", "lat": -30.88212869546626, "lon": 123.44643993423074, "alt_km": 416.5978015539695, "timestamp": "2025-12-17T17:50:17.972906+00:00", "meta": {"OBJECT_NAME": "STARLINK-36034", "OBJECT_ID": "2025-270X", "EPOCH": "2025-12-16T23:29:50.644896", "MEAN_MOTION": 15.50589265, "ECCENTRICITY": 0.0001389, "INCLINATION": 42.9987, "RA_OF_ASC_NODE": 167.8467, "ARG_OF_PERICENTER": 284.011, "MEAN_ANOMALY": 76.0596, "EPHEMERIS_TYPE": 0, "CLASSIFICATION_TYPE": "U", "NORAD_CAT_ID": 66609, "ELEMENT_SET_NO": 999, "REV_AT_EPOCH": 484, "BSTAR": 0.0011390981, "MEAN_MOTION_DOT": 0.00067083, "MEAN_MOTION_DDOT": 0}, "tle": {"line1": "1 66609U 25270X   25350.97905839  .00067083  00000+0  11391-2 0  9998", "line2": "2 66609  42.9987 167.8467 0001389 284.0110  76.0596 15.50589265  4849"}}, "geometry": {"type": "Point", "coordinates": [123.44643993423074, -30.88212869546626]}}, {"type": "Feature", "properties": {"norad_id": 66610, "name": "STARLINK-35680", "group": "last-30-days", "lat": -29.85208357323226, "lon": 125.35079184164073, "alt_km": 416.7302698900239, "timestamp": "2025-12-17T17:50:17.972916+00:00", "meta": {"OBJECT_NAME": "STARLINK-35680", "OBJECT_ID": "2025-270Y", "EPOCH": "2025-12-16T23:29:20.618304", "MEAN_MOTION": 15.50610959, "ECCENTRICITY": 0.00014356, "INCLINATION": 42.9991, "RA_OF_ASC_NODE": 167.8422, "ARG_OF_PERICENTER": 266.9874, "MEAN_ANOMALY": 93.0822, "EPHEMERIS_TYPE": 0, "CLASSIFICATION_TYPE": "U", "NORAD_CAT_ID": 66610, "ELEMENT_SET_NO": 999, "REV_AT_EPOCH": 511, "BSTAR": 0.00065622605, "MEAN_MOTION_DOT": 0.00038389, "MEAN_MOTION_DDOT": 0}, "tle": {"line1": "1 66610U 25270Y   25350.97871086  .00038389  00000+0  65623-3 0  9991", "line2": "2 66610  42.9991 167.8422 0001435 266.9874  93.0822 15.50610959  5112"}}, "geometry": {"type": "Point", "coordinates": [125.35079184164073, -29.85208357323226]}}, {"type": "Feature", "properties": {"norad_id": 66611, "name": "STARLINK-35583", "group": "last-30-days", "lat": -28.82043811408802, "lon": 127.17243546914091, "alt_km": 416.6864110557517, "timestamp": "2025-12-17T17:50:17.972926+00:00", "meta": {"OBJECT_NAME": "STARLINK-35583", "OBJECT_ID": "2025-270Z", "EPOCH": "2025-12-16T23:28:50.979648", "MEAN_MOTION": 15.50604168, "ECCENTRICITY": 0.00015782, "INCLINATION": 42.9987, "RA_OF_ASC_NODE": 167.8396, "ARG_OF_PERICENTER": 262.9618, "MEAN_ANOMALY": 97.1063, "EPHEMERIS_TYPE": 0, "CLASSIFICATION_TYPE": "U", "NORAD_CAT_ID": 66611, "ELEMENT_SET_NO": 999, "REV_AT_EPOCH": 511, "BSTAR": 0.00065255083, "MEAN_MOTION_DOT": 0.00038162, "MEAN_MOTION_DDOT": 0}, "tle": {"line1": "1 66611U 25270Z   25350.97836782  .00038162  00000+0  65255-3 0  9996", "line2": "2 66611  42.9987 167.8396 0001578 262.9618  97.1063 15.50604168  5115"}}, "geometry": {"type": "Point", "coordinates": [127.17243546914091, -28.82043811408802]}}, {"type": "Feature", "properties": {"norad_id": 66612, "name": "STARLINK-36039", "group": "last-30-days", "lat": 26.188094736273584, "lon": -48.06694018611091, "alt_km": 440.7011493913669, "timestamp": "2025-12-17T17:50:17.972936+00:00", "meta": {"OBJECT_NAME": "STARLINK-36039", "OBJECT_ID": "2025-270AA", "EPOCH": "2025-12-17T04:47:18.610944", "MEAN_MOTION": 15.40720831, "ECCENTRICITY": 0.00019671, "INCLINATION": 42.9989, "RA_OF_ASC_NODE": 166.9236, "ARG_OF_PERICENTER": 274.5235, "MEAN_ANOMALY": 85.5397, "EPHEMERIS_TYPE": 0, "CLASSIFICATION_TYPE": "U", "NORAD_CAT_ID": 66612, "ELEMENT_SET_NO": 999, "REV_AT_EPOCH": 503, "BSTAR": 0.00095716558, "MEAN_MOTION_DOT": 0.00039917, "MEAN_MOTION_DDOT": 0}, "tle": {"line1": "1 66612U 25270AA  25351.19952096  .00039917  00000+0  95717-3 0  9994", "line2": "2 66612  42.9989 166.9236 0001967 274.5235  85.5397 15.40720831  5034"}}, "geometry": {"type": "Point", "coordinates": [-48.06694018611091, 26.188094736273584]}}, {"type": "Feature", "properties": {"norad_id": 66613, "name": "STARLINK-36037", "group": "last-30-days", "lat": 10.531039819500615, "lon": -27.77888280945356, "alt_km": 442.5552403216061, "timestamp": "2025-12-17T17:50:17.972947+00:00", "meta": {"OBJECT_NAME": "STARLINK-36037", "OBJECT_ID": "2025-270AB", "EPOCH": "2025-12-17T08:00:04.999680", "MEAN_MOTION": 15.4067005, "ECCENTRICITY": 0.0001574, "INCLINATION": 42.999, "RA_OF_ASC_NODE": 166.0914, "ARG_OF_PERICENTER": 264.039, "MEAN_ANOMALY": 144.2974, "EPHEMERIS_TYPE": 0, "CLASSIFICATION_TYPE": "U", "NORAD_CAT_ID": 66613, "ELEMENT_SET_NO": 999, "REV_AT_EPOCH": 513, "BSTAR": 0.0010524849, "MEAN_MOTION_DOT": 0.00043871, "MEAN_MOTION_DDOT": 0}, "tle": {"line1": "1 66613U 25270AB  25351.33339120  .00043871  00000+0  10525-2 0  9995", "line2": "2 66613  42.9990 166.0914 0001574 264.0390 144.2974 15.40670050  5133"}}, "geometry": {"type": "Point", "coordinates": [-27.77888280945356, 10.531039819500615]}}, {"type": "Feature", "properties": {"norad_id": 66614, "name": "STARLINK-36040", "group": "last-30-days", "lat": -42.65296490613857, "lon": 82.09202745101628, "alt_km": 446.3553223387289, "timestamp": "2025-12-17T17:50:17.972957+00:00", "meta": {"OBJECT_NAME": "STARLINK-36040", "OBJECT_ID": "2025-270AC", "EPOCH": "2025-12-17T08:00:04.999680", "MEAN_MOTION": 15.41183954, "ECCENTRICITY": 0.00022286, "INCLINATION": 42.9988, "RA_OF_ASC_NODE": 165.8209, "ARG_OF_PERICENTER": 275.6766, "MEAN_ANOMALY": 244.3969, "EPHEMERIS_TYPE": 0, "CLASSIFICATION_TYPE": "U", "NORAD_CAT_ID": 66614, "ELEMENT_SET_NO": 999, "REV_AT_EPOCH": 498, "BSTAR": -0.01987102, "MEAN_MOTION_DOT": -0.00774911, "MEAN_MOTION_DDOT": 0}, "tle": {"line1": "1 66614U 25270AC  25351.33339120 -.00774911  00000+0 -19871-1 0  9996", "line2": "2 66614  42.9988 165.8209 0002228 275.6766 244.3969 15.41183954  4988"}}, "geometry": {"type": "Point", "coordinates": [82.09202745101628, -42.65296490613857]}}, {"type": "Feature", "properties": {"norad_id": 66615, "name": "STARLINK-35988", "group": "last-30-days", "lat": -14.589237135681225, "lon": -0.14149909820324683, "alt_km": 444.7494173824589, "timestamp": "2025-12-17T17:50:17.972967+00:00", "meta": {"OBJECT_NAME": "STARLINK-35988", "OBJECT_ID": "2025-270AD", "EPOCH": "2025-12-17T08:00:04.999680", "MEAN_MOTION": 15.40678347, "ECCENTRICITY": 0.00016015, "INCLINATION": 42.9989, "RA_OF_ASC_NODE": 166.0011, "ARG_OF_PERICENTER": 247.9667, "MEAN_ANOMALY": 197.5895, "EPHEMERIS_TYPE": 0, "CLASSIFICATION_TYPE": "U", "NORAD_CAT_ID": 66615, "ELEMENT_SET_NO": 999, "REV_AT_EPOCH": 498, "BSTAR": 0.00097911989, "MEAN_MOTION_DOT": 0.00040786, "MEAN_MOTION_DDOT": 0}, "tle": {"line1": "1 66615U 25270AD  25351.33339120  .00040786  00000+0  97912-3 0  9995", "line2": "2 66615  42.9989 166.0011 0001601 247.9667 197.5895 15.40678347  4981"}}, "geometry": {"type": "Point", "coordinates": [-0.14149909820324683, -14.589237135681225]}}, {"type": "Feature", "properties": {"norad_id": 66616, "name": "STARLINK-35391", "group": "last-30-days", "lat": -22.99165496982796, "lon": 136.24794716249588, "alt_km": 416.03513042087525, "timestamp": "2025-12-17T17:50:17.972978+00:00", "meta": {"OBJECT_NAME": "STARLINK-35391", "OBJECT_ID": "2025-270AE", "EPOCH": "2025-12-15T22:42:15.874848", "MEAN_MOTION": 15.50586233, "ECCENTRICITY": 0.00017552, "INCLINATION": 42.9989, "RA_OF_ASC_NODE": 173.8523, "ARG_OF_PERICENTER": 256.7172, "MEAN_ANOMALY": 103.3493, "EPHEMERIS_TYPE": 0, "CLASSIFICATION_TYPE": "U", "NORAD_CAT_ID": 66616, "ELEMENT_SET_NO": 999, "REV_AT_EPOCH": 495, "BSTAR": 0.00084717563, "MEAN_MOTION_DOT": 0.00049688, "MEAN_MOTION_DDOT": 0}, "tle": {"line1": "1 66616U 25270AE  25349.94601707  .00049688  00000+0  84718-3 0  9993", "line2": "2 66616  42.9989 173.8523 0001755 256.7172 103.3493 15.50586233  4954"}}, "geometry": {"type": "Point", "coordinates": [136.24794716249588, -22.99165496982796]}}, {"type": "Feature", "properties": {"norad_id": 66617, "name": "STARLINK-35940", "group": "last-30-days", "lat": -10.132855568466459, "lon": -8.793809273635809, "alt_km": 448.8277142920733, "timestamp": "2025-12-17T17:50:17.972990+00:00", "meta": {"OBJECT_NAME": "STARLINK-35940", "OBJECT_ID": "2025-271A", "EPOCH": "2025-12-17T08:00:04.999680", "MEAN_MOTION": 15.39598696, "ECCENTRICITY": 0.00015966, "INCLINATION": 53.1582, "RA_OF_ASC_NODE": 165.4375, "ARG_OF_PERICENTER": 124.4839, "MEAN_ANOMALY": 315.0402, "EPHEMERIS_TYPE": 0, "CLASSIFICATION_TYPE": "U", "NORAD_CAT_ID": 66617, "ELEMENT_SET_NO": 999, "REV_AT_EPOCH": 498, "BSTAR": 0.0016466872, "MEAN_MOTION_DOT": 0.00065993, "MEAN_MOTION_DDOT": 0}, "tle": {"line1": "1 66617U 25271A   25351.33339120  .00065993  00000+0  16467-2 0  9990", "line2": "2 66617  53.1582 165.4375 0001596 124.4839 315.0402 15.39598696  4982"}}, "geometry": {"type": "Point", "coordinates": [-8.793809273635809, -10.132855568466459]}}, {"type": "Feature", "properties": {"norad_id": 66618, "name": "STARLINK-35970", "group": "last-30-days", "lat": -12.158808048680767, "lon": 153.89957738084703, "alt_km": 420.835057520786, "timestamp": "2025-12-17T17:50:17.973001+00:00", "meta": {"OBJECT_NAME": "STARLINK-35970", "OBJECT_ID": "2025-271B", "EPOCH": "2025-12-17T02:25:19.323840", "MEAN_MOTION": 15.49300114, "ECCENTRICITY": 0.000119, "INCLINATION": 53.1595, "RA_OF_ASC_NODE": 166.2678, "ARG_OF_PERICENTER": 58.6404, "MEAN_ANOMALY": 301.4722, "EPHEMERIS_TYPE": 0, "CLASSIFICATION_TYPE": "U", "NORAD_CAT_ID": 66618, "ELEMENT_SET_NO": 999, "REV_AT_EPOCH": 488, "BSTAR": 0.00036669007, "MEAN_MOTION_DOT": 0.00019991, "MEAN_MOTION_DDOT": 0}, "tle": {"line1": "1 66618U 25271B   25351.10091810  .00019991  00000+0  36669-3 0  9991", "line2": "2 66618  53.1595 166.2678 0001190  58.6404 301.4722 15.49300114  4888"}}, "geometry": {"type": "Point", "coordinates": [153.89957738084703, -12.158808048680767]}}]}